[
    {
        "Altitude(m)": 604234.623442356,
        "Argument of Periapsis(deg)": 0.0,
        "Eccentricity": 0.0,
        "Inclination(deg)": 60.0,
        "Latitude(deg)": 14.117316813892032,
        "Longitude(deg)": 126.72734277504405,
        "Mean Anomaly(deg)": 163.6364,
        "RAAN(deg)": 55.00000000000001,
        "Satellite Name": "Test1 252",
        "Satellite Number": 252,
        "Semi-Major Axis(m)": 6980739.136638005,
        "Time(s)": 0
    },
    {
        "Altitude(m)": 604223.4514616646,
        "Argument of Periapsis(deg)": 0.00010418945913296404,
        "Eccentricity": 0.0,
        "Inclination(deg)": 60.0,
        "Latitude(deg)": 13.582452874793649,
        "Longitude(deg)": 127.0142514398655,
        "Mean Anomaly(deg)": 164.25650614546183,
        "RAAN(deg)": 54.999579950860266,
        "Satellite Name": "Test1 252",
        "Satellite Number": 252,
        "Semi-Major Axis(m)": 6980739.136638005,
        "Time(s)": 10
    }
]